0 FENGYUN 1A
1 19467U 88080A   13282.02060500 -.00000081  00000-0 -23934-4 0  7882
2 19467 098.9743 241.3255 0014037 189.5746 170.5155 14.02918613284223
0 FENGYUN 1A
1 19467U 88080A   13283.44699218 -.00000143  00000-0 -64102-4 0  7895
2 19467 098.9745 242.7316 0014091 185.3101 174.7918 14.02919025284420
0 FENGYUN 1A
1 19467U 88080A   13286.51372359 -.00000247  00000-0 -13103-3 0  7912
2 19467 098.9748 245.7547 0014239 176.4212 183.7058 14.02918801284853
0 FENGYUN 1A
1 19467U 88080A   13287.79747152 -.00000258  00000-0 -13799-3 0  7924
2 19467 098.9751 247.0201 0014323 172.8976 187.2396 14.02918475285032
0 FENGYUN 1A
1 19467U 88080A   13288.86726162 -.00000260  00000-0 -13947-3 0  7930
2 19467 098.9753 248.0746 0014385 169.9908 190.1547 14.02918155285181
0 FENGYUN 1A
1 19467U 88080A   13290.43628747 -.00000255  00000-0 -13617-3 0  7945
2 19467 098.9755 249.6213 0014489 165.6735 194.4844 14.02917569285405
0 FENGYUN 1A
1 19467U 88080A   13291.50607790 -.00000247  00000-0 -13079-3 0  7953
2 19467 098.9756 250.6760 0014552 162.9174 197.2484 14.02917128285551
0 FENGYUN 1A
1 19467U 88080A   13292.86114635 -.00000225  00000-0 -11681-3 0  7968
2 19467 098.9757 252.0119 0014632 159.3397 200.8363 14.02916544285741
0 FENGYUN 1A
1 19467U 88080A   13294.00225700 -.00000213  00000-0 -10887-3 0  7977
2 19467 098.9757 253.1370 0014700 156.3375 203.8470 14.02916165285900
0 FENGYUN 1A
1 19467U 88080A   13295.42864577 -.00000197  00000-0 -98412-4 0  7988
2 19467 098.9757 254.5435 0014772 152.6492 207.5455 14.02915698286102
